SPACEMOBILE-006         
1 67232U 25309A   26136.64686847  .00000698  00000+0  49027-4 0  9994
2 67232  52.9960 116.0744 0011858  40.4360 319.7513 15.18352952 21807
